#aV2014  8 13  0  0  0.00000000     288 DD+AD WGS84 FIT  NGA
## 1805 259200.00000000   300.00000000 56882 0.0000000000000
+   32     1  2  3  4  5  6  7  8  9 10 11 12 13 14 15 16 17
+         18 19 20 21 22 23 24 25 26 27 28 29 30 31 32  0  0
+          0  0  0  0  0  0  0  0  0  0  0  0  0  0  0  0  0
+          0  0  0  0  0  0  0  0  0  0  0  0  0  0  0  0  0
+          0  0  0  0  0  0  0  0  0  0  0  0  0  0  0  0  0
++         2  2  2  2  2  2  2  2  2  2  2  2  2  2  2  2  2
++         2  2  2  2  2  2  2  2  2  2  2  2  2  2  2  0  0
++         0  0  0  0  0  0  0  0  0  0  0  0  0  0  0  0  0
++         0  0  0  0  0  0  0  0  0  0  0  0  0  0  0  0  0
++         0  0  0  0  0  0  0  0  0  0  0  0  0  0  0  0  0
%c cc cc ccc ccc cccc cccc cccc cccc ccccc ccccc ccccc ccccc
%c cc cc ccc ccc cccc cccc cccc cccc ccccc ccccc ccccc ccccc
%f  0.0000000  0.000000000  0.00000000000  0.000000000000000
%f  0.0000000  0.000000000  0.00000000000  0.000000000000000
%i    0    0    0    0      0      0      0      0         0
%i    0    0    0    0      0      0      0      0         0
/*      NGA, ST. LOUIS,MO.                                  
/*   EPHEMERIS COMPUTED FROM  1 DAYS OF DATA                
/*   EPOCHA SMOOTHER                                       
/* CCCCCCCCCCCCCCCCCCCCCCCCCCCCCCCCCCCCCCCCCCCCCCCCCCCCCCCCC
*  2014  8 13  3 50  0.00000000
P  1 -13174.670719  22865.338676  -2199.732794     19.513991                    
V  1  -3945.483147    707.911497  31709.702845      0.006683                    
P  2  18655.304020  -6276.442765 -17299.049615    512.265369                    
V  2  -9887.806402  20700.492182 -18343.680528      0.021667                    
P  3 -13561.366272   7495.343468  21018.012328    403.147120                    
V  3 -16280.986179 -22893.398350  -2152.644694      0.050023                    
P  4   1035.924672  20895.256805 -16499.283930     -0.004367                    
V  4 -12988.781221  16112.091496  20225.556584     -0.001282                    
P  5  26070.111986  -2357.571233   4971.360233   -349.804439                    
V  5   6191.265982   3330.169186 -30490.523925      0.034243                    
P  6  13897.644678   6409.298689 -21717.763075     -4.048664                    
V  6 -14726.336205  23282.878460  -2566.482041     -0.011655                    
P  7  -3056.113814  21932.607522  14477.254804    379.528504                    
V  7 -12041.628864  14007.510626 -24243.012753      0.043004                    
P  8   -591.229604  19088.427791  18325.349748     15.157625                    
V  8 -15854.222726  16832.315810 -18837.521984      0.000800                    
P  9  11954.710259 -10144.862461  21793.055699     14.611227                    
V  9  12659.785778  23912.065999   4170.354824      0.054803                    
P 10  22812.476809   9322.417672 -10786.747693   -137.627904                    
V 10 -13218.148157   1721.591316 -26927.856712     -0.015590                    
P 11 -12053.732051  22105.778594   7647.266502   -512.915291                    
V 11  -2096.574220 -11426.148242  28078.399181     -0.029952                    
P 12  14979.494416 -11118.796372 -18893.362655    224.574259                    
V 12  23635.897822   3317.608113  17063.819324      0.025808                    
P 13   2083.103637  24469.131897 -10007.877242    -30.461693                    
V 13  -6502.836250 -10970.010904 -28694.894912     -0.039414                    
P 14 -14374.898067 -21065.957660  -7468.686488    145.314983                    
V 14  -1615.729601  -9889.041635  29921.631971     -0.036512                    
P 15   9645.633098 -13693.109075  20498.103811   -196.576794                    
V 15  13868.473776  22394.839717   8706.688593     -0.022101                    
P 16 -26205.040778    583.465078   5293.023626   -201.766970                    
V 16  -6493.038768  -2327.274143 -31195.937475      0.023625                    
P 17  14879.062568  20892.677151  -7074.616452   -116.110400                    
V 17   1776.561403   9377.649749  30086.610050     -0.027595                    
P 18  -7612.132342 -15762.332805  20516.046971    337.719710                    
V 18  25105.282465     49.608638   9245.461044      0.024861                    
P 19 -12199.262094   9384.606233  21435.592430   -473.222218                    
V 19 -10799.100060 -25451.129665   5399.027560     -0.019510                    
P 20 -10111.879696  14916.068956 -19681.271851    221.416392                    
V 20 -24751.861854  -1179.957632  12004.931125      0.043454                    
P 21  -2720.795757 -20056.791093  17624.601918   -378.055169                    
V 21  13350.488411 -16854.972940 -18222.107872     -0.021380                    
P 22 -20327.023440 -11018.032426  13434.406826    258.397902                    
V 22  16846.769577  -2223.762205  23893.087453      0.033239                    
P 23  -3738.611079  19737.844078 -17031.979541    -44.079147                    
V 23 -11829.701917 -18752.512912 -19422.166985     -0.029514                    
P 24  15208.361544 -21630.007694   1842.768148    -33.425927                    
V 24   1297.466504   3625.802171  31608.686723     -0.006274                    
P 25   1665.294651 -14829.331916 -22046.076802     23.718640                    
V 25  27719.251234   1503.857349   1214.877163     -0.006021                    
P 26  15293.523946   -260.705042  21097.881101    -17.953454                    
V 26   9888.882823  26481.083552  -6366.058371     -0.129778                    
P 27 -16836.919608  -1680.585975  20474.234660      5.614480                    
V 27 -11071.011295 -23547.203207 -10963.840325      0.032151                    
P 28  16200.509230  13236.535276  17046.333398    376.771170                    
V 28 -20367.133842  -1345.638573  21038.764672      0.028404                    
P 29  -3783.612011 -24515.892963  -9522.884341    553.281842                    
V 29   6983.173600  10143.895567 -28757.149499      0.025451                    
P 30   5673.916306  16085.134653  20343.679693    -47.610529                    
V 30 -16535.419311  19910.457131 -11173.710188     -0.055367                    
P 31 -14667.704910  -4363.260095 -21592.421876    332.760047                    
V 31  15538.625487 -22915.721025  -5583.632387     -0.003713                    
P 32 -21879.585619   6496.301056 -13068.624834   -364.082258                    
V 32 -16351.917486  -5238.657896  25229.649154      0.084412                    
EOF
